#aV2024  1 21  0  0  0.00000000     288 DD+AD WGS84 FIT  NGA
## 2298      0.00000000   300.00000000 60330 0.0000000000000
+   31     1  2  3  4  5  6  7  8  9 10 11 12 13 14 15 16 17
+         18 19 20 21 22 23 24 25 26 28 29 30 31 32  0  0  0
+          0  0  0  0  0  0  0  0  0  0  0  0  0  0  0  0  0
+          0  0  0  0  0  0  0  0  0  0  0  0  0  0  0  0  0
+          0  0  0  0  0  0  0  0  0  0  0  0  0  0  0  0  0
++         2  2  2  2  2  2  2  2  2  2  2  2  2  2  2  2  2
++         2  2  2  2  2  2  2  2  2  2  2  2  2  2  0  0  0
++         0  0  0  0  0  0  0  0  0  0  0  0  0  0  0  0  0
++         0  0  0  0  0  0  0  0  0  0  0  0  0  0  0  0  0
++         0  0  0  0  0  0  0  0  0  0  0  0  0  0  0  0  0
%c cc cc ccc ccc cccc cccc cccc cccc ccccc ccccc ccccc ccccc
%c cc cc ccc ccc cccc cccc cccc cccc ccccc ccccc ccccc ccccc
%f  0.0000000  0.000000000  0.00000000000  0.000000000000000
%f  0.0000000  0.000000000  0.00000000000  0.000000000000000
%i    0    0    0    0      0      0      0      0         0
%i    0    0    0    0      0      0      0      0         0
/*      NGA, ST. LOUIS,MO.                                  
/*   EPHEMERIS COMPUTED FROM 2 DAYS OF DATA                 
/*   EPOCHA v9 SMOOTHER                                     
/*   G2296 IERS2010 SATIGS SATAPC                           
*  2024  1 21 16 25  0.00000000
P  1 -13328.886524 -12713.046670 -19620.787312    166.761883                    
V  1  23956.462358   -916.482699 -15636.720820      0.011490                    
P  2  -5703.759422 -14109.739969 -21294.552618   -497.522554                    
V  2  27953.372517  -3580.263961  -4764.612683      0.056851                    
P  3 -11268.965186 -23754.601525  -4336.287846    141.363679                    
V  3   4460.861861   3470.699906 -31528.988847      0.253797                    
P  4  -2786.966634 -19590.572631  17663.015851    271.827425                    
V  4  12709.437462 -18576.734259 -18741.941264      0.096626                    
P  5   3136.869456  21951.792962  14376.984245   -158.808627                    
V  5 -12202.857370 -14152.331341  24068.620695     -0.014196                    
P  6 -24162.676506   6488.325021   9141.762527    436.719436                    
V  6 -11472.671534  -1409.189046 -29452.649224     -0.136062                    
P  7 -24061.448040  -6588.943848  10259.206255    -42.841793                    
V  7  12113.250632  -2692.828121  27548.055371     -0.092884                    
P  8   3046.976324 -23771.278999 -11061.005903   -163.195171                    
V  8   8817.347476 -11338.810302  27431.568591     -0.018051                    
P  9 -12681.981553  -8594.303713  21610.748579     66.131969                    
V  9  12683.411314 -24573.322414  -2377.633354      0.122985                    
P 10  16872.385231   1425.382361 -20347.365711    -70.222384                    
V 10  13203.083433  22576.587498  12090.816747     -0.015138                    
P 11 -15662.723394  12029.639891  17762.209092   -548.088710                    
V 11 -22480.642470  -1929.197237 -18588.884013     -0.137677                    
P 12   9388.162200  24519.339524  -4545.294653   -470.144152                    
V 12  -4817.821652  -3564.437714 -31069.035478     -0.038119                    
P 13 -12944.991217  22687.236446  -4308.331886    618.050038                    
V 13  -5200.998692   2695.330244  31501.513703      0.036880                    
P 14 -18423.182676  -5142.816816 -18480.976119    304.723057                    
V 14 -10479.008330 -21086.444012  16111.623013      0.101832                    
P 15     45.141093  24239.408465 -11097.092378    119.543108                    
V 15  -7516.013075  11650.417554  26805.245052      0.038972                    
P 16   4805.687609 -18351.310859  18065.172052   -379.502401                    
V 16  12385.849399  20382.094892  17548.473510      0.078675                    
P 17 -18062.917715   5410.754933 -18338.270286    719.330604                    
V 17  11479.973023 -21227.376391 -17029.325002     -0.009290                    
P 18  24634.886920   5483.914121   8584.948358   -537.478667                    
V 18 -10781.417345   2206.576735  29401.578806     -0.090287                    
P 19 -19307.637899  12972.661580 -12671.271301    429.674344                    
V 19   7073.441464 -14426.578314 -26279.798491      0.052679                    
P 20  -7813.986142  13984.792745  21267.480651    390.518858                    
V 20 -18298.304979 -19686.395899   6072.536492     -0.014718                    
P 21   -902.626833 -14939.307696 -21416.587757    137.662566                    
V 21  28279.569148  -2903.651172   1760.051884     -0.012693                    
P 22 -15106.244414   2838.964485 -21199.435105     44.417608                    
V 22 -11983.126186 -25284.390896   5334.409943     -0.064422                    
P 23  19180.734666  13223.319206 -12909.590711    139.856378                    
V 23   7557.658398  14572.651035  25930.383476      0.076099                    
P 24   4259.089172  15536.763975 -21549.699736   -417.987477                    
V 24 -26272.975307   3423.026067  -2361.133852     -0.069509                    
P 25  17153.864363  19671.379889   5310.954145    486.030972                    
V 25   1450.255007   7540.957152 -30399.450037      0.012981                    
P 26  12000.385533 -10269.040085  21194.425457    198.184876                    
V 26  16451.268895  21897.095352   1651.990871     -0.036511                    
P 28  25171.320660  -5895.527127   6052.522731   -105.627669                    
V 28   7878.628550   2198.767893 -30512.150482     -0.117087                    
P 29  10773.385167  10640.054782  21765.132596   -608.376757                    
V 29 -15179.959447  23197.768375  -3915.925755      0.005647                    
P 30 -26688.778858    947.924595   -244.771744   -442.664808                    
V 30   -553.551558  -3383.983236  30998.745513      0.047105                    
P 31  20346.553513 -10068.156880  13901.954210   -227.434796                    
V 31  17885.433290   1930.472023 -24010.199310     -0.001955                    
P 32  18080.056117  -9325.082181 -16767.864759   -606.696036                    
V 32  -8343.395864  20179.186723 -20190.647574     -0.026798                    
EOF
